start=new Date('2021-09-20T00:00:00.000Z').valueOf();
sats=[{"COUNTRY_CODE":"US","TLE_LINE1":"1 45066U 20006Y   21262.74058038 -.00000299  00000-0 -12029-5 0  9998","CLASSIFICATION_TYPE":"U","REV_AT_EPOCH":"9076","EPHEMERIS_TYPE":"0","OBJECT_NAME":"STARLINK-1145","BSTAR":"-0.00000120290000","SITE":"AFETR","SEMIMAJOR_AXIS":"6925.358","RA_OF_ASC_NODE":"32.7292","PERIAPSIS":"546.396","OBJECT_ID":"2020-006Y","TLE_LINE2":"2 45066  53.0566  32.7292 0001194 117.3306 242.7805 15.06396896 90762","RCS_SIZE":"LARGE","NORAD_CAT_ID":"45066","OBJECT_TYPE":"PAYLOAD","DECAY_DATE":null,"MEAN_MOTION_DDOT":"0.0000000000000","GP_ID":"185055825","MEAN_ANOMALY":"242.7805","ELEMENT_SET_NO":"999","CENTER_NAME":"EARTH","ARG_OF_PERICENTER":"117.3306","ECCENTRICITY":"0.00011940","MEAN_ELEMENT_THEORY":"SGP4","INCLINATION":"53.0566","MEAN_MOTION":"15.06396896","TIME_SYSTEM":"UTC","EPOCH":"2021-09-19T17:46:26.144832","PERIOD":"95.592","LAUNCH_DATE":"2020-01-29","FILE":"3120378","MEAN_MOTION_DOT":"-0.00000299","REF_FRAME":"TEME","APOAPSIS":"548.050"},{"INCLINATION":"53.0551","MEAN_ELEMENT_THEORY":"SGP4","ECCENTRICITY":"0.00013610","MEAN_MOTION":"15.06404454","ELEMENT_SET_NO":"999","ARG_OF_PERICENTER":"92.9747","CENTER_NAME":"EARTH","FILE":"3120015","LAUNCH_DATE":"2020-01-29","APOAPSIS":"548.142","REF_FRAME":"TEME","MEAN_MOTION_DOT":"0.00001034","PERIOD":"95.592","EPOCH":"2021-09-19T14:56:34.722240","TIME_SYSTEM":"UTC","CLASSIFICATION_TYPE":"U","EPHEMERIS_TYPE":"0","REV_AT_EPOCH":"9075","COUNTRY_CODE":"US","TLE_LINE1":"1 45067U 20006Z   21262.62262410  .00001034  00000-0  88315-4 0  9993","NORAD_CAT_ID":"45067","OBJECT_TYPE":"PAYLOAD","MEAN_ANOMALY":"267.1397","MEAN_MOTION_DDOT":"0.0000000000000","GP_ID":"185023531","DECAY_DATE":null,"OBJECT_NAME":"STARLINK-1150","RCS_SIZE":"LARGE","TLE_LINE2":"2 45067  53.0551  33.2533 0001361  92.9747 267.1397 15.06404454 90750","PERIAPSIS":"546.257","OBJECT_ID":"2020-006Z","SITE":"AFETR","RA_OF_ASC_NODE":"33.2533","SEMIMAJOR_AXIS":"6925.335","BSTAR":"0.00008831500000"},{"REF_FRAME":"TEME","MEAN_MOTION_DOT":"0.00000401","APOAPSIS":"548.144","LAUNCH_DATE":"2020-01-29","FILE":"3120378","TIME_SYSTEM":"UTC","PERIOD":"95.592","EPOCH":"2021-09-19T21:02:49.835616","MEAN_MOTION":"15.06398562","ECCENTRICITY":"0.00013370","INCLINATION":"53.0559","MEAN_ELEMENT_THEORY":"SGP4","ARG_OF_PERICENTER":"110.5778","CENTER_NAME":"EARTH","ELEMENT_SET_NO":"999","MEAN_MOTION_DDOT":"0.0000000000000","GP_ID":"185054324","DECAY_DATE":null,"MEAN_ANOMALY":"249.5355","OBJECT_TYPE":"PAYLOAD","NORAD_CAT_ID":"45068","RA_OF_ASC_NODE":"32.1229","SITE":"AFETR","SEMIMAJOR_AXIS":"6925.353","BSTAR":"0.00004583300000","TLE_LINE2":"2 45068  53.0559  32.1229 0001337 110.5778 249.5355 15.06398562 90786","RCS_SIZE":"LARGE","PERIAPSIS":"546.292","OBJECT_ID":"2020-006AA","OBJECT_NAME":"STARLINK-1161","REV_AT_EPOCH":"9078","EPHEMERIS_TYPE":"0","CLASSIFICATION_TYPE":"U","TLE_LINE1":"1 45068U 20006AA  21262.87696569  .00000401  00000-0  45833-4 0  9992","COUNTRY_CODE":"US"},{"FILE":"3120378","LAUNCH_DATE":"2020-01-29","APOAPSIS":"548.220","MEAN_MOTION_DOT":"-0.00000799","REF_FRAME":"TEME","EPOCH":"2021-09-19T18:55:26.754240","PERIOD":"95.592","TIME_SYSTEM":"UTC","MEAN_ELEMENT_THEORY":"SGP4","INCLINATION":"53.0562","ECCENTRICITY":"0.00014370","MEAN_MOTION":"15.06396212","ELEMENT_SET_NO":"999","CENTER_NAME":"EARTH","ARG_OF_PERICENTER":"105.9685","NORAD_CAT_ID":"45071","OBJECT_TYPE":"PAYLOAD","MEAN_ANOMALY":"254.1462","DECAY_DATE":null,"MEAN_MOTION_DDOT":"0.0000000000000","GP_ID":"185055573","OBJECT_NAME":"STARLINK-1167","PERIAPSIS":"546.230","OBJECT_ID":"2020-006AD","RCS_SIZE":"LARGE","TLE_LINE2":"2 45071  53.0562  32.5133 0001437 105.9685 254.1462 15.06396212 90778","BSTAR":"-0.00003474900000","SITE":"AFETR","SEMIMAJOR_AXIS":"6925.360","RA_OF_ASC_NODE":"32.5133","CLASSIFICATION_TYPE":"U","EPHEMERIS_TYPE":"0","REV_AT_EPOCH":"9077","COUNTRY_CODE":"US","TLE_LINE1":"1 45071U 20006AD  21262.78850410 -.00000799  00000-0 -34749-4 0  9999"},{"EPOCH":"2021-09-19T19:00:45.825984","PERIOD":"95.593","TIME_SYSTEM":"UTC","FILE":"3120378","LAUNCH_DATE":"2020-01-29","APOAPSIS":"548.283","MEAN_MOTION_DOT":"-0.00000710","REF_FRAME":"TEME","ELEMENT_SET_NO":"999","CENTER_NAME":"EARTH","ARG_OF_PERICENTER":"100.4732","MEAN_ELEMENT_THEORY":"SGP4","INCLINATION":"53.0565","ECCENTRICITY":"0.00015010","MEAN_MOTION":"15.06390282","OBJECT_NAME":"STARLINK-1168","OBJECT_ID":"2020-006AE","PERIAPSIS":"546.204","RCS_SIZE":"LARGE","TLE_LINE2":"2 45072  53.0565  32.5049 0001501 100.4732 259.6426 15.06390282 90774","SITE":"AFETR","BSTAR":"-0.00002875500000","SEMIMAJOR_AXIS":"6925.378","RA_OF_ASC_NODE":"32.5049","NORAD_CAT_ID":"45072","OBJECT_TYPE":"PAYLOAD","MEAN_ANOMALY":"259.6426","DECAY_DATE":null,"GP_ID":"185055326","MEAN_MOTION_DDOT":"0.0000000000000","COUNTRY_CODE":"US","TLE_LINE1":"1 45072U 20006AE  21262.79219706 -.00000710  00000-0 -28755-4 0  9991","CLASSIFICATION_TYPE":"U","EPHEMERIS_TYPE":"0","REV_AT_EPOCH":"9077"},{"ECCENTRICITY":"0.00013280","MEAN_ELEMENT_THEORY":"SGP4","INCLINATION":"53.0553","MEAN_MOTION":"15.06392485","ELEMENT_SET_NO":"999","CENTER_NAME":"EARTH","ARG_OF_PERICENTER":"117.1707","LAUNCH_DATE":"2020-01-29","FILE":"3120378","MEAN_MOTION_DOT":"-0.00000779","REF_FRAME":"TEME","APOAPSIS":"548.156","TIME_SYSTEM":"UTC","EPOCH":"2021-09-19T18:02:21.949152","PERIOD":"95.593","CLASSIFICATION_TYPE":"U","REV_AT_EPOCH":"9076","EPHEMERIS_TYPE":"0","COUNTRY_CODE":"US","TLE_LINE1":"1 45073U 20006AF  21262.75164293 -.00000779  00000-0 -33402-4 0  9998","OBJECT_TYPE":"PAYLOAD","NORAD_CAT_ID":"45073","DECAY_DATE":null,"MEAN_MOTION_DDOT":"0.0000000000000","GP_ID":"185054577","MEAN_ANOMALY":"242.9417","OBJECT_NAME":"STARLINK-1170","SITE":"AFETR","SEMIMAJOR_AXIS":"6925.372","RA_OF_ASC_NODE":"32.6725","BSTAR":"-0.00003340200000","PERIAPSIS":"546.317","OBJECT_ID":"2020-006AF","TLE_LINE2":"2 45073  53.0553  32.6725 0001328 117.1707 242.9417 15.06392485 90769","RCS_SIZE":"LARGE"},{"CENTER_NAME":"EARTH","ARG_OF_PERICENTER":"104.0467","ELEMENT_SET_NO":"999","MEAN_MOTION":"15.06398539","ECCENTRICITY":"0.00014820","MEAN_ELEMENT_THEORY":"SGP4","INCLINATION":"53.0573","TIME_SYSTEM":"UTC","EPOCH":"2021-09-19T17:41:07.874016","PERIOD":"95.592","MEAN_MOTION_DOT":"-0.00000622","REF_FRAME":"TEME","APOAPSIS":"548.244","LAUNCH_DATE":"2020-01-29","FILE":"3120378","TLE_LINE1":"1 45074U 20006AG  21262.73689669 -.00000622  00000-0 -22879-4 0  9999","COUNTRY_CODE":"US","REV_AT_EPOCH":"9076","EPHEMERIS_TYPE":"0","CLASSIFICATION_TYPE":"U","BSTAR":"-0.00002287900000","SITE":"AFETR","SEMIMAJOR_AXIS":"6925.353","RA_OF_ASC_NODE":"32.7495","OBJECT_ID":"2020-006AG","PERIAPSIS":"546.192","TLE_LINE2":"2 45074  53.0573  32.7495 0001482 104.0467 256.0687 15.06398539 90767","RCS_SIZE":"LARGE","OBJECT_NAME":"STARLINK-1172","DECAY_DATE":null,"GP_ID":"185054824","MEAN_MOTION_DDOT":"0.0000000000000","MEAN_ANOMALY":"256.0687","OBJECT_TYPE":"PAYLOAD","NORAD_CAT_ID":"45074"},{"CLASSIFICATION_TYPE":"U","REV_AT_EPOCH":"9075","EPHEMERIS_TYPE":"0","COUNTRY_CODE":"US","TLE_LINE1":"1 45075U 20006AH  21262.63737364 -.00001017  00000-0 -49393-4 0  9994","OBJECT_TYPE":"PAYLOAD","NORAD_CAT_ID":"45075","GP_ID":"185024034","MEAN_MOTION_DDOT":"0.0000000000000","DECAY_DATE":null,"MEAN_ANOMALY":"247.6323","OBJECT_NAME":"STARLINK-1174","BSTAR":"-0.00004939300000","SITE":"AFETR","SEMIMAJOR_AXIS":"6925.362","RA_OF_ASC_NODE":"33.1943","RCS_SIZE":"LARGE","TLE_LINE2":"2 45075  53.0565  33.1943 0001250 112.4799 247.6323 15.06395577 90757","PERIAPSIS":"546.361","OBJECT_ID":"2020-006AH","ECCENTRICITY":"0.00012500","INCLINATION":"53.0565","MEAN_ELEMENT_THEORY":"SGP4","MEAN_MOTION":"15.06395577","ELEMENT_SET_NO":"999","ARG_OF_PERICENTER":"112.4799","CENTER_NAME":"EARTH","LAUNCH_DATE":"2020-01-29","FILE":"3120015","REF_FRAME":"TEME","MEAN_MOTION_DOT":"-0.00001017","APOAPSIS":"548.093","TIME_SYSTEM":"UTC","PERIOD":"95.592","EPOCH":"2021-09-19T15:17:49.082496"},{"MEAN_MOTION_DOT":"0.00001286","REF_FRAME":"TEME","APOAPSIS":"548.112","LAUNCH_DATE":"2020-01-29","FILE":"3120378","TIME_SYSTEM":"UTC","EPOCH":"2021-09-19T20:15:03.255552","PERIOD":"95.593","MEAN_MOTION":"15.06392706","ECCENTRICITY":"0.00012650","MEAN_ELEMENT_THEORY":"SGP4","INCLINATION":"53.0558","CENTER_NAME":"EARTH","ARG_OF_PERICENTER":"111.0220","ELEMENT_SET_NO":"999","DECAY_DATE":null,"GP_ID":"185055826","MEAN_MOTION_DDOT":"0.0000000000000","MEAN_ANOMALY":"249.0904","OBJECT_TYPE":"PAYLOAD","NORAD_CAT_ID":"45076","SEMIMAJOR_AXIS":"6925.371","SITE":"AFETR","BSTAR":"0.00010521000000","RA_OF_ASC_NODE":"32.2626","PERIAPSIS":"546.360","OBJECT_ID":"2020-006AJ","RCS_SIZE":"LARGE","TLE_LINE2":"2 45076  53.0558  32.2626 0001265 111.0220 249.0904 15.06392706 90783","OBJECT_NAME":"STARLINK-1180","REV_AT_EPOCH":"9078","EPHEMERIS_TYPE":"0","CLASSIFICATION_TYPE":"U","TLE_LINE1":"1 45076U 20006AJ  21262.84378768  .00001286  00000-0  10521-3 0  9993","COUNTRY_CODE":"US"},{"COUNTRY_CODE":"US","TLE_LINE1":"1 45077U 20006AK  21262.70739728 -.00001201  00000-0 -19849-4 0  9998","CLASSIFICATION_TYPE":"U","EPHEMERIS_TYPE":"0","REV_AT_EPOCH":"9092","OBJECT_NAME":"STARLINK-1182","RCS_SIZE":"LARGE","TLE_LINE2":"2 45077  53.0560  21.3439 0000979  78.8546 281.2567 15.39876983 90929","PERIAPSIS":"445.807","OBJECT_ID":"2020-006AK","SITE":"AFETR","BSTAR":"-0.00001984900000","SEMIMAJOR_AXIS":"6824.610","RA_OF_ASC_NODE":"21.3439","OBJECT_TYPE":"PAYLOAD","NORAD_CAT_ID":"45077","MEAN_ANOMALY":"281.2567","MEAN_MOTION_DDOT":"0.0000000000000","GP_ID":"185054078","DECAY_DATE":null,"ELEMENT_SET_NO":"999","CENTER_NAME":"EARTH","ARG_OF_PERICENTER":"78.8546","INCLINATION":"53.0560","MEAN_ELEMENT_THEORY":"SGP4","ECCENTRICITY":"0.00009790","MEAN_MOTION":"15.39876983","PERIOD":"93.514","EPOCH":"2021-09-19T16:58:39.124992","TIME_SYSTEM":"UTC","FILE":"3120378","LAUNCH_DATE":"2020-01-29","APOAPSIS":"447.143","REF_FRAME":"TEME","MEAN_MOTION_DOT":"-0.00001201"}];
